#dP2024  5 13  0  0  0.00000000      97 __u+U IGS20 FIT  IAC
## 2314  86400.00000000   900.00000000 60443 0.0000000000000
+  119   C06C07C08C09C10C11C12C13C14C16C19C20C21C22C23C24C25
+        C26C27C28C29C30C32C33C34C35C36C37C38C39C40C41C42C43
+        C44C45C46E02E03E04E05E07E08E09E10E11E12E13E14E15E18
+        E19E21E24E25E26E27E30E31E33E34E36G02G03G04G05G06G07
+        G08G09G10G11G12G13G14G15G16G17G18G19G20G21G22G23G24
+        G25G26G27G28G29G30G31G32J02J03J04R01R02R03R04R05R07
+        R08R09R11R12R13R14R15R16R17R18R19R20R21R22R24R25R26
++         8  9  8  8  9  7  7  8  7  8  6  6  6  6  6  6  6
++         6  6  7  6  6  6  6  6  7  7  7  8  8  8  7  6  6
++         6  6  7  4  5  5  4  4  5  4  5  5  5  5  6  5  5
++         5  4  5  4  5  4  4  6  5  4  4  4  4  4  4  4  4
++         4  4  4  4  4  3  4  4  4  4  4  4  4  4  4  4  4
++         4  4  4  4  4  4  4  4 11 12 12  8  7  7  7  7  7
++         7  7  7  7  8  7  7  7  7  7  8  8  7  7  7  8  8
%c M  cc GPS ccc cccc cccc cccc cccc ccccc ccccc ccccc ccccc
%c cc cc ccc ccc cccc cccc cccc cccc ccccc ccccc ccccc ccccc
%f  1.2500000  1.025000000  0.00000000000  0.000000000000000
%f  0.0000000  0.000000000  0.00000000000  0.000000000000000
%i    0    0    0    0      0      0      0      0         0
%i    0    0    0    0      0      0      0      0         0
/* INFORMATION & ANALYSIS CENTER (IAC)            FINAL DATA
/* S/V CLOCKS ARE ALIGNED TO GNSS TIME                      
/* G:C1WC2W R:C1PC2P E:C1XC5X C:C2IC6I J:C1CC2S             
/* PCV:IGS20_2290 OL/AL:FES2004  NONE     YN ORB:CoN CLK:CoN
*  2024 05 13 18  0  0.00000000
PC06  -3176.996995  25621.619837  33460.834936    418.780606
PC07 -17753.392849  34488.884821 -16725.636310   -733.158016
PC08  -4840.881748  39230.111476 -14405.874265   -111.321364
PC09   4275.998152  28539.851961  31426.142850   -896.002363
PC10 -10074.683132  34395.495615 -22308.847475     19.312894
PC11  16514.995589 -10824.962055  19776.376402    560.606671
PC12  27522.550100    702.283440   4587.646029   -245.137312
PC13    -17.334808  41317.079564  -7505.390996    435.370341
PC14  17299.869356 -21801.380186   1464.438305    874.309425
PC16  -7484.478657  23353.375910  34626.751476   -519.134954
PC19 -11413.295673  24270.967975   7801.487990   -912.882252
PC20 -20148.096722  17186.277451  -8856.805345   -460.442512
PC21  17420.380374   1173.911277  21776.134126   -966.997632
PC22   4365.281229  17877.005831  20988.713497     -6.147509
PC23 -11301.402972 -25515.699190    197.771814   -778.985388
PC24  14855.532637  -6832.995149 -22623.892580    923.943314
PC25   1813.530975 -22981.922596 -15747.022709    398.891221
PC26  18814.679336  12540.947478 -16349.792009   -290.776838
PC27 -26873.644728  -6211.443092   4185.615081    312.352269
PC28 -16066.826627 -14434.773649  17671.701451    239.412184
PC29  -6884.103892  15244.270267 -22346.593602    280.926887
PC30 -24444.066673   6388.725259 -11840.070189    -76.444246
PC32 -17417.476100  -1062.712119 -21766.915444   -622.330768
PC33  11312.958035 -24310.478442  -7674.592913   -965.197841
PC34  23516.440202  -7360.327661  13099.764866    432.909843
PC35  16326.167171  13996.793250 -17822.048392    364.011410
PC36  -2419.863701  22874.691828  15818.992427     80.404845
PC37 -18523.668465 -13200.191118  16194.307470   -965.900027
PC38  -8811.499345  35945.383066 -20051.604435    154.885511
PC39 -11659.678384  21208.731892  34601.113715     -8.335187
PC40 -25127.206402  29630.800350 -16760.962997    -69.988634
PC41  -3728.584058 -18433.878301 -20552.990460   -946.977567
PC42  20437.855002 -15861.793879  10453.755329   -442.926883
PC43   8003.781654 -15103.500814  22046.410079     71.528344
PC44  27059.297728   5329.612761  -4383.872770    472.215350
PC45  11128.694828  25578.968674    -68.571574    -85.707493
PC46 -14428.628282   7466.228428  22685.813962   -147.912148
PE02   1979.995246 -29097.460763   5088.554318    127.108014
PE03   2821.482934 -18200.900895 -23165.436705   -113.497819
PE04  18370.601390   9245.807030  21298.912903   -396.154575
PE05  21923.397189 -16287.518963 -11393.936982   4747.368429
PE07 -28289.047265   4591.879412  -7426.953936   -119.921438
PE08 -17616.473990  -9642.828810 -21744.937575   -270.140334
PE09  28242.490857  -4535.583802   7581.401898   -441.584352
PE10  24712.536835  13974.149613   8369.011347   -624.521671
PE11  23444.255097   5403.515947  17240.646369   2871.535853
PE12  22153.713573  19635.010540   -782.400664  -1036.692899
PE13 -23593.412305  -5920.224375 -16859.441056    -21.564734
PE14 -14647.035019  21586.328028 -18702.219287     35.256516
PE15 -21913.144031 -19845.506604   1336.304789   -102.670115
PE18    865.428637 -16433.751680  18167.509161    106.844692
PE19  -5254.069292  18395.171399  22602.433877    -70.236456
PE21 -13281.068081  23199.135410  12712.161472   -594.312277
PE24  17377.733798  -3077.845971 -23782.447285   -760.419918
PE25  13464.643063 -22900.319057 -13053.650957      4.461297
PE26 -11057.026460  11797.407887 -24794.037786    453.350643
PE27 -17327.724971   3456.745203  23746.741477   -348.477392
PE30 -11021.597556 -18236.948400  20536.849297   -296.523105
PE31  11107.460321  18072.192650 -20640.278894    -23.403392
PE33   6924.950749  21789.552380 -18802.326317     11.629961
PE34  -7457.777115 -21906.220652  18449.997625   -111.041583
PE36  11482.873740 -11194.702816  24876.945186   -226.602760
PG02  22737.402491  13998.784136   1400.594015   -436.832591
PG03  12767.239286   9464.614969  21151.598366    361.518810
PG04  21402.993255   3728.442330  15388.860216    360.284105
PG05  -6549.166093 -22374.888356 -12816.504480   -172.579307
PG06   5294.758309 -14211.684865  21850.914268    274.921591
PG07  20455.268297   1077.487258 -16640.945869   -128.103663
PG08  13468.545105  10182.274882 -20704.211712    176.273767
PG09  25178.639064  -7160.595280   4579.717128    195.056891
PG10 -10532.107628  21535.788631 -10866.898242    -22.565271
PG11  -7239.318178 -20459.162647  15370.532872   -661.257696
PG12 -11802.191642 -12000.993641  20275.538958   -505.039830
PG13  -3942.181921 -14568.571104 -22063.101847    650.217509
PG14  13236.370428 -18342.818684 -13719.509288    399.871806
PG15 -14556.851805  -9233.367134 -20746.510788    158.648151
PG16   1656.031806  24279.103515 -10417.845871   -292.563183
PG17  21346.999400 -13442.868634   8981.534473    706.578871
PG18 -19570.516673   -290.200973 -18032.068256   -610.042981
PG19  14197.626006 -15341.661049  15970.368596    481.562538
PG20  -1971.347344 -26510.290200  -1721.190558    376.711216
PG21  20859.988707  16804.669318  -3726.553530    121.825979
PG22  10072.092927 -23906.193754  -5952.742672    -13.117486
PG23 -14424.682354  10858.086272 -19387.463929    224.551187
PG24 -21692.190995 -15654.902096  -1793.401335   -469.267274
PG25 -15229.128303  -1242.641769  21379.093022    495.652503
PG26  -4321.863569  25755.938947   3437.867547    153.377525
PG27   1121.206215  15760.822700 -21582.892576    -23.803985
PG28  -7580.837366  13259.922670  21716.976118   -242.531807
PG29 -25520.687805   2947.013016   6917.949647   -598.563451
PG30  13022.426888  -9443.346138 -21017.356053   -390.939804
PG31   2512.147026  18843.119269  18171.134089   -227.836788
PG32 -18657.199841  15598.241789  10650.216252   -618.268026
PJ02 -31030.197294  26483.760466  16020.903397     -0.141739
PJ03 -25956.269167  16967.313754 -23921.412088      0.192127
PJ04 -25389.787685  33591.143526   1065.764624     50.332638
PR01 -14912.225754    966.566713 -20672.654571     85.266055
PR02 -20102.526646  13575.392377  -7742.601984    -22.941034
PR03 -13760.323484  19148.554548   9712.642029    100.093066
PR04   -444.281664  13876.662474  21430.290622    236.245124
PR05  13358.105131   1384.874193  21706.167957    131.449081
PR07  13364.965353 -19125.012863 -10317.096593     82.317764
PR08    113.267287 -13825.219849 -21378.511333    -75.420056
PR09   9938.028294  -6224.500541 -22625.378154    186.366229
PR11  -6582.347824 -24613.186346   1022.220071     24.838774
PR12 -12140.025877 -13118.835408  18229.264991     40.097829
PR13 -10539.862476   3347.755719  22974.353498    -47.330144
PR14  -1815.890330  21166.960570  14149.503098     26.485808
PR15   7108.924645  24364.543583  -2580.747663     79.847986
PR16  12056.092135  13362.145936 -18083.161487     25.557190
PR17  -5610.863353   9319.562708 -23072.439334     86.464106
PR18  11697.195900  12701.619484 -18788.293398    141.878400
PR19  22058.704103  10990.835935  -6583.142039   -276.488436
PR20  21263.810690    949.509165  14092.169036   -112.735382
PR21   5747.892858  -9159.084634  23094.415548   -100.544365
PR22 -12257.415214 -13334.383093  17977.093671    112.187351
PR24 -21053.019698    572.257293 -14391.101234    -55.670517
PR25   5755.187286  -9506.804477  22959.963371    -35.610055
PR26   1049.938327 -14496.205286 -20930.492588    -19.861147
EOF
